{
  "type": "FeatureCollection",
  "features": [
    {
      "type": "Feature",
      "properties": {
        "norad_id": 35993,
        "name": "COSMOS 2251 DEB",
        "group": "cosmos-2251-debris",
        "lat": -35.097126413871976,
        "lon": 147.5737312045729,
        "alt_km": 676.2163519788628,
        "timestamp": "2025-12-21T11:31:43.256524+00:00",
        "meta_object_name": "COSMOS 2251 DEB",
        "meta_object_id": "1993-036AWK",
        "meta_epoch": "2025-12-21T03:59:29.501088",
        "meta_mean_motion": 14.65356197,
        "meta_eccentricity": 0.0028516,
        "meta_inclination": 74.0154,
        "meta_ra_of_asc_node": 316.5577,
        "meta_arg_of_pericenter": 143.4068,
        "meta_mean_anomaly": 216.9056,
        "meta_ephemeris_type": 0,
        "meta_classification_type": "U",
        "meta_norad_cat_id": 35993,
        "meta_element_set_no": 999,
        "meta_rev_at_epoch": 60566,
        "meta_bstar": 0.00046927,
        "meta_mean_motion_dot": 2.519e-05,
        "meta_mean_motion_ddot": 0,
        "tle_line1": "1 35993U 93036AWK 25355.16631367  .00002519  00000+0  46927-3 0  9990",
        "tle_line2": "2 35993  74.0154 316.5577 0028516 143.4068 216.9056 14.65356197605663"
      },
      "geometry": {
        "type": "Point",
        "coordinates": [
          147.5737312045729,
          -35.097126413871976
        ]
      }
    },
    {
      "type": "Feature",
      "properties": {
        "norad_id": 35996,
        "name": "COSMOS 2251 DEB",
        "group": "cosmos-2251-debris",
        "lat": -59.085147079945386,
        "lon": -66.02276515458291,
        "alt_km": 522.8832983872899,
        "timestamp": "2025-12-21T11:31:43.256534+00:00",
        "meta_object_name": "COSMOS 2251 DEB",
        "meta_object_id": "1993-036AWN",
        "meta_epoch": "2025-12-15T22:25:06.327264",
        "meta_mean_motion": 15.09228347,
        "meta_eccentricity": 0.00876626,
        "meta_inclination": 74.0159,
        "meta_ra_of_asc_node": 96.8248,
        "meta_arg_of_pericenter": 187.0066,
        "meta_mean_anomaly": 172.9909,
        "meta_ephemeris_type": 0,
        "meta_classification_type": "U",
        "meta_norad_cat_id": 35996,
        "meta_element_set_no": 999,
        "meta_rev_at_epoch": 72374,
        "meta_bstar": 0.00054952121,
        "meta_mean_motion_dot": 9.536e-05,
        "meta_mean_motion_ddot": 0,
        "tle_line1": "1 35996U 93036AWN 25349.93410101  .00009536  00000+0  54952-3 0  9995",
        "tle_line2": "2 35996  74.0159  96.8248 0087662 187.0066 172.9909 15.09228347723745"
      },
      "geometry": {
        "type": "Point",
        "coordinates": [
          -66.02276515458291,
          -59.085147079945386
        ]
      }
    },
    {
      "type": "Feature",
      "properties": {
        "norad_id": 35997,
        "name": "COSMOS 2251 DEB",
        "group": "cosmos-2251-debris",
        "lat": -44.963183621664456,
        "lon": 154.24994843369217,
        "alt_km": 723.3417871667898,
        "timestamp": "2025-12-21T11:31:43.256545+00:00",
        "meta_object_name": "COSMOS 2251 DEB",
        "meta_object_id": "1993-036AWP",
        "meta_epoch": "2025-12-19T05:09:14.184000",
        "meta_mean_motion": 14.51343045,
        "meta_eccentricity": 0.0015535,
        "meta_inclination": 74.0424,
        "meta_ra_of_asc_node": 175.1147,
        "meta_arg_of_pericenter": 250.287,
        "meta_mean_anomaly": 109.6616,
        "meta_ephemeris_type": 0,
        "meta_classification_type": "U",
        "meta_norad_cat_id": 35997,
        "meta_element_set_no": 999,
        "meta_rev_at_epoch": 70978,
        "meta_bstar": 0.00045886,
        "meta_mean_motion_dot": 1.803e-05,
        "meta_mean_motion_ddot": 0,
        "tle_line1": "1 35997U 93036AWP 25353.21474750  .00001803  00000+0  45886-3 0  9997",
        "tle_line2": "2 35997  74.0424 175.1147 0015535 250.2870 109.6616 14.51343045709785"
      },
      "geometry": {
        "type": "Point",
        "coordinates": [
          154.24994843369217,
          -44.963183621664456
        ]
      }
    },
    {
      "type": "Feature",
      "properties": {
        "norad_id": 36005,
        "name": "COSMOS 2251 DEB",
        "group": "cosmos-2251-debris",
        "lat": -37.70917718984827,
        "lon": -89.55315680307974,
        "alt_km": 696.672219229632,
        "timestamp": "2025-12-21T11:31:43.256556+00:00",
        "meta_object_name": "COSMOS 2251 DEB",
        "meta_object_id": "1993-036AWX",
        "meta_epoch": "2025-12-20T16:16:09.286464",
        "meta_mean_motion": 14.47369013,
        "meta_eccentricity": 0.00616894,
        "meta_inclination": 74.0271,
        "meta_ra_of_asc_node": 79.1538,
        "meta_arg_of_pericenter": 214.8629,
        "meta_mean_anomaly": 144.8483,
        "meta_ephemeris_type": 0,
        "meta_classification_type": "U",
        "meta_norad_cat_id": 36005,
        "meta_element_set_no": 999,
        "meta_rev_at_epoch": 87699,
        "meta_bstar": 0.00013338398,
        "meta_mean_motion_dot": 4.72e-06,
        "meta_mean_motion_ddot": 0,
        "tle_line1": "1 36005U 93036AWX 25354.67788526  .00000472  00000+0  13338-3 0  9996",
        "tle_line2": "2 36005  74.0271  79.1538 0061689 214.8629 144.8483 14.47369013876991"
      },
      "geometry": {
        "type": "Point",
        "coordinates": [
          -89.55315680307974,
          -37.70917718984827
        ]
      }
    },
    {
      "type": "Feature",
      "properties": {
        "norad_id": 36045,
        "name": "COSMOS 2251 DEB",
        "group": "cosmos-2251-debris",
        "lat": -73.14244851564534,
        "lon": -64.05274301079665,
        "alt_km": 696.4255577144222,
        "timestamp": "2025-12-21T11:31:43.256567+00:00",
        "meta_object_name": "COSMOS 2251 DEB",
        "meta_object_id": "1993-036AXG",
        "meta_epoch": "2025-12-17T21:23:36.435552",
        "meta_mean_motion": 14.69971183,
        "meta_eccentricity": 0.0048002,
        "meta_inclination": 73.7643,
        "meta_ra_of_asc_node": 48.9349,
        "meta_arg_of_pericenter": 60.9199,
        "meta_mean_anomaly": 299.6765,
        "meta_ephemeris_type": 0,
        "meta_classification_type": "U",
        "meta_norad_cat_id": 36045,
        "meta_element_set_no": 999,
        "meta_rev_at_epoch": 8464,
        "meta_bstar": 0.0014164853,
        "meta_mean_motion_dot": 8.618e-05,
        "meta_mean_motion_ddot": 0,
        "tle_line1": "1 36045U 93036AXG 25351.89139393  .00008618  00000+0  14165-2 0  9991",
        "tle_line2": "2 36045  73.7643  48.9349 0048002  60.9199 299.6765 14.69971183 84640"
      },
      "geometry": {
        "type": "Point",
        "coordinates": [
          -64.05274301079665,
          -73.14244851564534
        ]
      }
    },
    {
      "type": "Feature",
      "properties": {
        "norad_id": 36046,
        "name": "COSMOS 2251 DEB",
        "group": "cosmos-2251-debris",
        "lat": -0.2668849813471675,
        "lon": 79.73360362939533,
        "alt_km": 707.4650389581402,
        "timestamp": "2025-12-21T11:31:43.256577+00:00",
        "meta_object_name": "COSMOS 2251 DEB",
        "meta_object_id": "1993-036AXH",
        "meta_epoch": "2025-12-21T00:56:56.522112",
        "meta_mean_motion": 14.65315014,
        "meta_eccentricity": 0.005587,
        "meta_inclination": 74.0169,
        "meta_ra_of_asc_node": 260.5061,
        "meta_arg_of_pericenter": 44.1197,
        "meta_mean_anomaly": 331.1837,
        "meta_ephemeris_type": 0,
        "meta_classification_type": "U",
        "meta_norad_cat_id": 36046,
        "meta_element_set_no": 999,
        "meta_rev_at_epoch": 64125,
        "meta_bstar": 0.00034571,
        "meta_mean_motion_dot": 1.877e-05,
        "meta_mean_motion_ddot": 0,
        "tle_line1": "1 36046U 93036AXH 25355.03954308  .00001877  00000+0  34571-3 0  9997",
        "tle_line2": "2 36046  74.0169 260.5061 0055870  44.1197 331.1837 14.65315014641253"
      },
      "geometry": {
        "type": "Point",
        "coordinates": [
          79.73360362939533,
          -0.2668849813471675
        ]
      }
    },
    {
      "type": "Feature",
      "properties": {
        "norad_id": 36047,
        "name": "COSMOS 2251 DEB",
        "group": "cosmos-2251-debris",
        "lat": 1.839380170479731,
        "lon": -42.97336505508839,
        "alt_km": 574.9452546756502,
        "timestamp": "2025-12-21T11:31:43.256587+00:00",
        "meta_object_name": "COSMOS 2251 DEB",
        "meta_object_id": "1993-036AXJ",
        "meta_epoch": "2025-12-18T04:53:35.477376",
        "meta_mean_motion": 14.9621864,
        "meta_eccentricity": 0.00084577,
        "meta_inclination": 74.0358,
        "meta_ra_of_asc_node": 323.1177,
        "meta_arg_of_pericenter": 350.3843,
        "meta_mean_anomaly": 9.7178,
        "meta_ephemeris_type": 0,
        "meta_classification_type": "U",
        "meta_norad_cat_id": 36047,
        "meta_element_set_no": 999,
        "meta_rev_at_epoch": 66021,
        "meta_bstar": 0.0023104884,
        "meta_mean_motion_dot": 0.00026146,
        "meta_mean_motion_ddot": 0,
        "tle_line1": "1 36047U 93036AXJ 25352.20388284  .00026146  00000+0  23105-2 0  9994",
        "tle_line2": "2 36047  74.0358 323.1177 0008457 350.3843   9.7178 14.96218640660211"
      },
      "geometry": {
        "type": "Point",
        "coordinates": [
          -42.97336505508839,
          1.839380170479731
        ]
      }
    }
  ]
}